STARLINK-31116          
1 58947U 24027S   26043.25821652  .00000487  00000+0  28568-4 0  9995
2 58947  53.1599  67.8127 0001378 111.6488 248.4659 15.30189610113430
STARLINK-31311          
1 58948U 24027T   26043.37354785 -.00001383  00000+0 -34598-4 0  9995
2 58948  53.1610  64.9914 0001273 101.0269 259.0875 15.30191413113488
STARLINK-31294          
1 58949U 24027U   26043.34674847  .00000801  00000+0  39162-4 0  9991
2 58949  53.1592  67.6556 0001167  99.2083 260.9050 15.30191569113448
STARLINK-31330          
1 58951U 24027W   26043.25546448 -.00001010  00000+0 -21966-4 0  9997
2 58951  53.1600  64.9745 0001480 110.5126 249.6034 15.30199065113472
STARLINK-31293          
1 58952U 24027X   26043.37935254 -.00000398  00000+0 -12971-5 0  9993
2 58952  53.1598  67.1489 0001265 110.5423 249.5713 15.30186317113457
HBTSS-SV2               
1 58955U 24028A   26043.01369954  .00000047  00000+0  13899-3 0  9993
2 58955  39.9900 258.9765 0020555 243.5768 116.2869 13.70439840 99895
RAPTOR4                 
1 58956U 24028B   26043.04492692  .00000033  00000+0  12382-3 0  9994
2 58956  39.9897 259.1566 0015611 240.8984 119.0199 13.70153508 99880
RAPTOR1                 
1 58957U 24028C   26043.01740484 -.00000017  00000+0  68416-4 0  9990
2 58957  39.9892 258.9696 0012936 252.2717 107.6617 13.70305064 99889
RAPTOR3                 
1 58958U 24028D   26042.96562749 -.00000027  00000+0  56674-4 0  9994
2 58958  39.9901 258.6875 0012452 254.4247 105.5125 13.70478714 99886
RAPTOR2                 
1 58959U 24028E   26043.00802222 -.00000016  00000+0  68331-4 0  9995
2 58959  39.9897 258.1513 0012657 256.5150 103.4187 13.70545211 99891
HBTSS-SV1               
1 58960U 24028F   26043.47652676  .00002495  00000+0  39037-3 0  9996
2 58960  39.9889  95.6890 0009297  46.3512 313.8041 14.74121243 88590
STARLINK-31373          
1 58965U 24031A   26043.25758035  .00000163  00000+0  17635-4 0  9998
2 58965  53.1591  54.5241 0000911 114.2349 245.8747 15.30195442112640
STARLINK-31449          
1 58966U 24031B   26043.25547477 -.00000034  00000+0  10977-4 0  9995
2 58966  53.1608  54.5129 0001493  96.2496 263.8675 15.30193053112649
STARLINK-31314          
1 58967U 24031C   26043.39243340  .00000070  00000+0  14480-4 0  9995
2 58967  53.1600  53.9488 0001204 106.0506 254.0627 15.30194223112666
STARLINK-31356          
1 58968U 24031D   26043.35289240 -.00001571  00000+0 -40910-4 0  9997
2 58968  53.1611  26.5274 0001402  86.0467 274.0694 15.30198159113042
STARLINK-31335          
1 58969U 24031E   26043.23067143  .00000635  00000+0  33568-4 0  9990
2 58969  53.1617  52.2292 0001263  90.8614 269.2531 15.30191087112674
STARLINK-31368          
1 58970U 24031F   26043.52201444 -.00001265  00000+0 -30601-4 0  9995
2 58970  53.1596  53.3287 0001371 106.2182 253.8970 15.30189928112688
STARLINK-31333          
1 58971U 24031G   26043.24237014  .00000408  00000+0  25897-4 0  9994
2 58971  53.1620  42.3492 0001483 108.2640 251.8522 15.30190568112816
STARLINK-31351          
1 58972U 24031H   26043.34400659 -.00000438  00000+0 -26514-5 0  9996
2 58972  53.1608  54.3492 0001608 100.7793 259.3388 15.30187984112643
STARLINK-31365          
1 58973U 24031J   26043.35033589 -.00000082  00000+0  93487-5 0  9999
2 58973  53.1610  54.3872 0001371 101.3181 258.7973 15.30189172112659
STARLINK-31361          
1 58974U 24031K   26043.34717845 -.00000023  00000+0  11347-4 0  9992
2 58974  53.1614  54.3687 0001473  91.0927 269.0243 15.30177661112659
STARLINK-31369          
1 58975U 24031L   26043.22286959  .00000626  00000+0  33278-4 0  9992
2 58975  53.1607  55.0127 0001292  95.4337 264.6811 15.30190259112617
STARLINK-31324          
1 58976U 24031M   26043.22603463  .00000896  00000+0  42386-4 0  9995
2 58976  53.1609  55.0333 0001410  92.7787 267.3376 15.30192359112619
STARLINK-31358          
1 58977U 24031N   26043.45459877 -.00002360  00000+0 -67661-4 0  9992
2 58977  53.1607  53.6122 0000906  80.7234 279.3870 15.30172015112654
STARLINK-31355          
1 58978U 24031P   26043.22920336  .00000778  00000+0  38392-4 0  9999
2 58978  53.1604  55.0515 0001339  77.5400 282.5751 15.30190156112610
STARLINK-31380          
1 58979U 24031Q   26043.23236329  .00000592  00000+0  32120-4 0  9990
2 58979  53.1613  55.0724 0001355 287.8623  72.2230 15.30191136112619
STARLINK-31353          
1 58980U 24031R   26043.23025778  .00001257  00000+0  54559-4 0  9995
2 58980  53.1608  55.0615 0001261  85.2697 274.8447 15.30192608112616
STARLINK-31339          
1 58981U 24031S   26043.23553394 -.00000771  00000+0 -13924-4 0  9999
2 58981  53.1607  55.0898 0001344 106.0220 254.0929 15.30188080112619
STARLINK-31384          
1 58983U 24031U   26043.24185807  .00003128  00000+0  11768-3 0  9992
2 58983  53.1601  55.1297 0002002 127.2930 232.8253 15.30203830112619
STARLINK-31379          
1 58984U 24031V   26043.24608794 -.00000237  00000+0  41415-5 0  9991
2 58984  53.1601  55.1514 0001291  96.9117 263.2031 15.30189275112618
STARLINK-31385          
1 58985U 24031W   26043.28659705  .00000739  00000+0  37080-4 0  9992
2 58985  53.1610  52.5289 0001312  99.7356 260.3793 15.30190981112652
STARLINK-31229          
1 58986U 24031X   26043.44836318 -.00000148  00000+0  71126-5 0  9993
2 58986  53.1606  54.2859 0001132  75.6654 284.4473 15.30192277112645
CE-SAT-IE               
1 58987U 24032A   26043.11281051  .00000512  00000+0  97401-4 0  9994
2 58987  98.0158 100.5052 0003997 110.2991 249.8644 14.68157644106486
TIRSAT                  
1 58989U 24032C   26043.12571807  .00001622  00000+0  26551-3 0  9998
2 58989  98.0150 103.3822 0005096 172.8798 187.2483 14.72116469106680
INSAT-3DS               
1 58990U 24033A   26043.11780847 -.00000148  00000+0  00000+0 0  9996
2 58990   0.0106 106.7284 0001718 240.2418 279.6484  1.00273531 45816
ADRAS-J                 
1 58992U 24034A   26043.48530058  .00002129  00000+0  13748-3 0  9993
2 58992  98.2262  61.0688 0053521 185.5524 174.5115 15.08345511108511
MERAH PUTIH 2           
1 58995U 24035A   26043.49489096 -.00000350  00000+0  00000+0 0  9991
2 58995   0.0160 153.6358 0000688 186.3189  93.6659  1.00270251  7333
AAC-AIS-SAT3            
1 58997U 23174DJ  26043.49250703  .00004992  00000+0  60722-3 0  9993
2 58997  97.6424  97.4985 0006704  23.6174 336.5347 14.83868405122658
STARLINK-31468          
1 58998U 24036A   26042.73601075 -.00000512  00000+0 -51784-5 0  9996
2 58998  53.1605 198.4063 0001117  98.9442 261.1686 15.30193176111366
STARLINK-31440          
1 58999U 24036B   26042.73811758 -.00002198  00000+0 -62154-4 0  9992
2 58999  53.1604 198.4089 0001079  94.3046 265.8079 15.30182622110541
STARLINK-31529          
1 59000U 24036C   26043.40866315  .00002186  00000+0  85885-4 0  9991
2 59000  53.1597 193.3611 0001525  71.6380 288.4786 15.30205663111409
STARLINK-31431          
1 59002U 24036E   26042.58649330  .00003034  00000+0  11454-3 0  9990
2 59002  53.1610 199.5972 0000870  84.6006 275.5094 15.30189514111322
STARLINK-31435          
1 59004U 24036G   26042.73917266  .00000694  00000+0  35562-4 0  9991
2 59004  53.1612 198.4112 0001388  77.1639 282.9517 15.30194546111361
STARLINK-31484          
1 59005U 24036H   26042.93827778  .00000287  00000+0  21817-4 0  9998
2 59005  53.1607 197.5196 0001057  82.0874 278.0246 15.30201419111382
STARLINK-31450          
1 59006U 24036J   26043.40287681  .00000175  00000+0  18049-4 0  9994
2 59006  53.1618 195.4498 0001596  60.3327 299.7833 15.30190659111450
STARLINK-31456          
1 59007U 24036K   26043.46397145 -.00000335  00000+0  82987-6 0  9991
2 59007  53.1603 195.1162 0001220  85.4399 274.6741 15.30187530111466
STARLINK-31460          
1 59008U 24036L   26042.70973776  .00000713  00000+0  36182-4 0  9991
2 59008  53.1601 198.9387 0001031  76.7225 283.3891 15.30193530111343
STARLINK-31488          
1 59009U 24036M   26042.93722522 -.00000371  00000+0 -40549-6 0  9994
2 59009  53.1590 197.5147 0000984  84.0133 276.0979 15.30197019111382
STARLINK-31528          
1 59010U 24036N   26043.38399283 -.00000208  00000+0  50999-5 0  9997
2 59010  53.1614 196.0395 0001105  93.4631 266.6496 15.30195910111447
STARLINK-31491          
1 59011U 24036P   26042.60126643 -.00005095  00000+0 -15996-3 0  9996
2 59011  53.1606 199.6793 0001161  90.3290 269.7844 15.30212687111328
STARLINK-31465          
1 59012U 24036Q   26043.05319752 -.00001638  00000+0 -43219-4 0  9991
2 59012  53.1600 197.5253 0000890  97.3633 262.7469 15.30188842111395
STARLINK-31389          
1 59013U 24036R   26042.72979021  .00000716  00000+0  36320-4 0  9995
2 59013  53.1592 199.0662 0002044  98.5406 261.5826 15.30194973111353
STARLINK-31454          
1 59014U 24036S   26042.72345527  .00002389  00000+0  92768-4 0  9990
2 59014  53.1591 199.0241 0001396  92.6976 267.4185 15.30200409111346
STARLINK-31521          
1 59015U 24036T   26042.65708637  .00000074  00000+0  14616-4 0  9993
2 59015  53.1597 199.3169 0001073  94.0438 266.0686 15.30197273111330
STARLINK-31526          
1 59016U 24036U   26043.50612519 -.00000195  00000+0  55437-5 0  9994
2 59016  53.1604 169.7620 0001140  84.5124 275.6006 15.30189229111822
STARLINK-31406          
1 59017U 24036V   26043.37910725  .00000133  00000+0  16627-4 0  9998
2 59017  53.1596 182.5185 0001061  80.0381 280.0739 15.30190424111631
STARLINK-31527          
1 59018U 24036W   26042.77821765  .00000867  00000+0  41402-4 0  9990
2 59018  53.1612 198.6565 0001155  86.4007 273.7126 15.30196535111357
STARLINK-31436          
1 59019U 24036X   26042.73295321  .00005389  00000+0  19394-3 0  9998
2 59019  53.1580 199.0777 0001268  76.2207 283.8934 15.30198464111347
TJS-11                  
1 59020U 24037A   26042.99606787 -.00000353  00000+0  00000+0 0  9998
2 59020   4.3676 325.5603 0006090  26.6535 268.7731  1.00271032  7322
